[
    {
        "Altitude(m)": 604221.1968718934,
        "Argument of Periapsis(deg)": 0.0,
        "Eccentricity": 0.0,
        "Inclination(deg)": 60.0,
        "Latitude(deg)": 14.117203338951635,
        "Longitude(deg)": -126.6658330684711,
        "Mean Anomaly(deg)": 16.363599999999984,
        "RAAN(deg)": 325.0,
        "Satellite Name": "Test1 1431",
        "Satellite Number": 1431,
        "Semi-Major Axis(m)": 6980739.136638005,
        "Time(s)": 0
    },
    {
        "Altitude(m)": 604235.3374787844,
        "Argument of Periapsis(deg)": 0.00010418945913296404,
        "Eccentricity": 0.0,
        "Inclination(deg)": 60.0,
        "Latitude(deg)": 14.65159983977019,
        "Longitude(deg)": -126.37738566074198,
        "Mean Anomaly(deg)": 16.983706145461838,
        "RAAN(deg)": 324.99957995086027,
        "Satellite Name": "Test1 1431",
        "Satellite Number": 1431,
        "Semi-Major Axis(m)": 6980739.136638005,
        "Time(s)": 10
    }
]